SIRION PATHFINDER-2     
1 43759U 18099B   26134.94583106  .00003588  00000+0  19974-3 0  9993
2 43759  97.4280 184.7968 0010143  62.0264 298.1993 15.14228119407592
CORVUS BC4              
1 43767U 18099K   26134.57678531  .00002588  00000+0  15341-3 0  9991
2 43767  97.4096 178.5437 0010016 113.8766 246.3516 15.12207411407326
M2 PATHFINDER           
1 45727U 20037E   26134.52849275  .00001517  00000+0  11280-3 0  9993
2 45727  97.8164 325.3840 0010021 266.1865  93.8215 15.04524288320434
NETSAT-4                
1 46504U 20068U   26134.99186732  .00011178  00000+0  25798-3 0  9997
2 46504  97.8612 140.5965 0007608  85.0076 275.2039 15.42712052310653
NETSAT-3                
1 46505U 20068V   26134.90721446  .00011590  00000+0  27855-3 0  9990
2 46505  97.8662 138.7651 0007523  98.0690 262.1409 15.41482043310550
NETSAT-1                
1 46506U 20068W   26133.95878587  .00008878  00000+0  27422-3 0  9999
2 46506  97.8748 132.4691 0006813 119.6117 240.5803 15.33779633310054
NETSAT-2                
1 46507U 20068X   26133.97276657  .00015779  00000+0  34200-3 0  9992
2 46507  97.8631 139.2762 0006218 108.8781 251.3141 15.44502126310458
GREENCUBE (IO-117)      
1 53109U 22080E   26134.41119754 -.00000003  00000+0  00000+0 0  9990
2 53109  70.1435 309.9963 0008807 297.4178  62.5586  6.42583317 89895
SITRO-AIS 5 (KATYS)     
1 57176U 23091L   26134.95590073  .00007547  00000+0  27314-3 0  9997
2 57176  97.5083 198.5569 0010913 212.2625 147.7948 15.28651473159262
SITRO-AIS 6 (CHIRKIN)   
1 57192U 23091AC  26134.92536207  .00005558  00000+0  22356-3 0  9992
2 57192  97.5091 197.8177 0011040 215.8564 144.1934 15.25268007159214
SITRO-AIS 8 (ANOKHIN)   
1 57193U 23091AD  26134.96408851  .00008489  00000+0  28397-3 0  9997
2 57193  97.5078 200.0228 0010219 207.5082 152.5619 15.31188135159363
SITRO-AIS 7 (FARTUSHNIY)
1 57194U 23091AE  26134.92188318  .00005437  00000+0  22069-3 0  9997
2 57194  97.5087 197.6559 0010859 216.9779 143.0711 15.24973252159204
SITRO-AIS 10 (BURDAEV)  
1 57199U 23091AK  26134.93609738  .00012905  00000+0  35502-3 0  9991
2 57199  97.5102 204.7160 0007239 179.4459 180.6794 15.37295121159654
SITRO-AIS 9 (SHCHUKIN)  
1 57201U 23091AM  26134.95237684  .00012321  00000+0  34404-3 0  9996
2 57201  97.5100 204.4877 0007431 180.1944 179.9298 15.36841109159641
SITRO-AIS 12 (SMIRENNIY)
1 57204U 23091AQ  26134.94920727  .00012217  00000+0  33809-3 0  9997
2 57204  97.5112 204.9310 0007230 174.1216 186.0114 15.37125666159668
SITRO-AIS 11 (SHEFFER)  
1 57208U 23091AU  26134.97146110  .00012140  00000+0  33176-3 0  9992
2 57208  97.5110 205.1801 0007180 173.9255 186.2078 15.37519087159689
SITRO-AIS 25            
1 59066U 24039R   26134.94118727  .00003115  00000+0  24285-3 0  9992
2 59066  95.3921 212.2500 0147404  84.5138 277.2880 14.93271191119764
SITRO-AIS 26            
1 59067U 24039S   26134.93808378  .00002972  00000+0  23286-3 0  9990
2 59067  95.3922 212.1523 0147733  85.0635 276.7438 14.93073823119757
SITRO-AIS 27            
1 59068U 24039T   26134.98457233  .00002896  00000+0  22497-3 0  9994
2 59068  95.3925 212.4405 0146870  83.5911 278.2015 14.93486891119788
SITRO-AIS 28            
1 59071U 24039U   26134.96278256  .00003568  00000+0  27642-3 0  9996
2 59071  95.3926 212.4710 0146803  83.5436 278.2482 14.93521324119789
GRBBETA                 
1 60237U 24128C   26134.96640147  .00002758  00000+0  19703-3 0  9992
2 60237  61.9903 332.7971 0045124 127.8423 232.6767 15.06351819101265
OOV-CUBE (TUBSAT-30)    
1 60240U 24128F   26134.58433762  .00001484  00000+0  12410-3 0  9990
2 60240  61.9949 342.7297 0048780 126.4623 234.0978 15.02594260101062
ROBUSTA-3A (MEDITERRAN*)
1 60243U 24128J   26134.92309690  .00005352  00000+0  32311-3 0  9993
2 60243  61.9866 325.8305 0045770 121.7029 238.8541 15.11125342101394
LASARSAT                
1 62391U 24247Q   26134.29551416  .00022146  00000+0  47806-3 0  9991
2 62391  44.9738  92.3362 0004832 129.6361 230.4955 15.44206327 78072
CROCUBE                 
1 62394U 24247T   26134.58987807  .00022695  00000+0  46368-3 0  9994
2 62394  44.9718  88.5239 0004516 135.4760 224.6493 15.45812512 78140
FORESAIL-1 PRIME        
1 66778U 25276DS  26134.45592384  .00003138  00000+0  15594-3 0  9993
2 66778  97.4211 208.3508 0001932 182.3815 177.7411 15.18376987 25289
KNACKSAT-2              
1 67683U 98067XZ  26134.62029022  .00027627  00000+0  38017-3 0  9994
2 67683  51.6276 102.9176 0012447  74.8469 285.3899 15.56964080 15049
